#dP2021  6  5  0  0  0.00000000      96 __u+U ITR00 EXT  IAC
## 2160 518400.00000000   900.00000000 59370 0.0000000000000
+  116   C06C07C08C09C10C11C12C13C14C16C19C20C21C22C23C24C25
+        C26C27C28C29C30C32C33C34C35C36C37C38C39C40C41C42C43
+        C44C45C46E01E02E03E04E05E07E08E09E11E12E13E14E15E18
+        E19E21E24E25E26E27E30E31E33E36G01G02G03G04G05G06G07
+        G08G09G10G12G13G14G15G16G17G18G19G20G21G22G23G24G25
+        G26G27G28G29G30G31G32J01J02J03R01R02R03R04R05R07R08
+        R09R11R12R13R14R15R16R17R18R19R20R21R22R24  0  0  0
++         9  8 11  9 10  8  9 11  9 10  9  8 10 10 10  8  9
++        10  9  8  9  9  7  9 10  8  8  8 10 11  8 10  9 10
++         8 10  8  8  8  8  8  8  8  8  7  8  9  7  7  8  7
++         8  8  7  6  7  7  7  7  8  8  8  8  7  8  7  8  8
++         7  7  8  8  7  8  8  9  7  8  6  7  7  8  7  7  7
++         8  8  7  6  7  8  8 11 12  8  8  7  9  9  8  8  8
++        10  7 10  7  8  9  8 10  8  7  9  8  9  7  0  0  0
%c M  cc GPS ccc cccc cccc cccc cccc ccccc ccccc ccccc ccccc
%c cc cc ccc ccc cccc cccc cccc cccc ccccc ccccc ccccc ccccc
%f  0.0000000  0.000000000  0.00000000000  0.000000000000000
%f  0.0000000  0.000000000  0.00000000000  0.000000000000000
%i    0    0    0    0      0      0      0      0         0
%i    0    0    0    0      0      0      0      0         0
/* IAC                                ULTRA-RAPID PREDICTION
/* S/V CLOCKS ARE ALIGNED TO GNSS TIME                      
/* G:C1WC2W R:C1PC2P E:C1XC5X C:C2IC6I J:C1CC2S             
/* PCV:IGS14_2148 OL/AL:FES2004  NONE     YN ORB:CoN CLK:CoN
*  2021 06 05  8 30  0.00000000
PC06 -25067.931120  26441.197441 -21158.552502    466.521479
PC07 -13088.541434  37188.921291 -13941.024030    106.595728
PC08  -6837.559876  21048.152903  36033.468213   -892.562227
PC09  -9904.676541  26818.313185 -30826.170669    471.427114
PC10  -1915.935417  41867.682174   -288.111074    -33.669478
PC11  -1512.250510  15976.945085  22878.518386    381.708526
PC12 -19931.012582  14609.697035  12972.797075    855.720303
PC13   5108.483826  27996.715789  31296.067718    288.125633
PC14  -1683.515473  27076.594821  -6372.056572    925.934496
PC16 -21925.311902  27035.622062 -23818.035633   -879.671229
PC19  -5226.181390 -23086.928378  14828.086875    861.014617
PC20   7129.133941 -26967.073584  -1313.299496   -888.305728
PC21 -15893.062884  14785.365240  17544.035686   -936.748514
PC22 -14926.775327  -5749.661654  22875.824346   -951.707551
PC23  23033.151267  12645.976886   9399.074827   -926.233044
PC24  -2348.079191  18377.698865 -20877.840363   -879.623997
PC25  15855.577724  21674.537818  -7624.164086   -905.926481
PC26 -17035.794262   5233.267163 -21472.581116    897.115972
PC27  25528.746031 -10380.748269  -4353.938903    543.241429
PC28  24616.404495   2295.941732  12945.495828    -66.012778
PC29  -9753.513711 -13243.784095 -22555.243858    401.892805
PC30  11379.728809 -17317.424936 -18689.654816    469.577476
PC32  15770.708543 -14953.136154 -17493.683380   -927.030521
PC33   5301.571313  23086.368116 -14724.718317   -936.555355
PC34 -10687.932872  17363.060359  19051.057215   -657.454189
PC35 -24543.137713  -1730.129513 -13210.613456   -247.809988
PC36 -15055.052396 -22108.859440   7990.410963   -726.942746
PC37  17761.929154  -3975.613441  21176.178632   -880.045187
PC38  -4430.284922  24839.429486  33808.851617    153.288228
PC39 -18195.612869  28604.907431 -25144.782738     31.584537
PC40  -9523.847723  40678.659722  -5043.678396    167.941880
PC41  14865.354759   6026.664368 -22781.846174   -945.908149
PC42  -7636.765485  26747.419257   2143.790524   -913.431299
PC43   9137.952116  13638.152878  22552.585832   -762.301145
PC44 -25281.082812  11127.448844   4090.483576    223.770608
PC45 -23021.144627 -12545.238006  -9531.343558    458.968462
PC46   1297.854501 -18819.518216  20563.198782    238.596971
PE01  -3557.129736 -28068.546689   8699.956886  -1122.706251
PE02   3652.961609  28098.878916  -8581.590631    223.958977
PE03  -6341.390026  24346.546940 -15577.811341   -438.586657
PE04 -11121.129314 -13207.667142  24054.660767   -785.857593
PE05 -20366.024221  21366.605796   2187.350556   -275.401226
PE07  22355.171454  -5990.357202 -18448.431707   -546.161933
PE08  11346.705861  12759.212073 -24170.448941   5990.927640
PE09 -22278.012760   6298.911876  18444.331485   5644.090215
PE11 -29209.195162  -2506.810568   4150.016352   5890.722546
PE12 -21691.688109 -13715.265373 -14773.275140   5175.581072
PE13  29233.153054   2690.114307  -3754.796153    417.336711
PE14 -13080.730617  18208.614213   8962.908325  -1455.427085
PE15  21754.582983  13579.382537  14776.144634    810.490388
PE18   7841.677757 -24614.984726 -19364.444378  -1593.800660
PE19   8391.561241 -24740.743617  13927.629976    294.519110
PE21   9728.834410 -17173.070858  22058.587565   -668.913279
PE24 -18121.482424  -5070.214746 -22855.656102   -938.089486
PE25  -9853.163496  16987.693709 -22141.970742   -535.982633
PE26  18819.005482 -10249.156914 -20421.759195   1729.131393
PE27  17978.207938   4093.732814  23159.569804    -47.598698
PE30  15107.988173  23517.371557   9745.001518   2888.573779
PE31 -15593.175854 -22803.430771 -10627.423636   -481.888392
PE33  -1500.675045 -16450.694510 -24563.829550   -469.381805
PE36 -19495.768442   9752.492165  20027.540904   -216.713373
PG01 -21097.679332 -14392.244803  -8184.805631    668.043034
PG02   -819.680916  15763.229491  22010.232631   -609.947290
PG03 -12396.587224 -19063.627475  13730.268109   -183.361488
PG04 -13509.813416  -8491.032486  21251.148616   -198.866432
PG05   5546.389241  25862.583236   -929.121079    -44.025954
PG06 -13209.377418   9754.104964  20947.704451     23.292988
PG07 -25491.668479  -6344.228925  -5081.640605    170.111706
PG08  -4516.251605 -15259.311366 -21224.629343    -23.911391
PG09 -20844.164934   2223.907552  16267.230318   -349.507177
PG10  12482.410883 -11139.046339 -20445.647523   -136.129986
PG12  10105.253216  21144.569210  12379.441636    -50.728514
PG13  -5223.420749  18184.806481 -18716.687975    140.917438
PG14 -13273.622417  10734.943580 -20348.660473     74.803339
PG15   7052.541308  15148.114968 -20954.405338   -144.530402
PG16    747.639656 -26050.039643   3384.279527   -336.361862
PG17 -22649.567951  13428.204585  -3055.114973    453.597390
PG18  24789.544596   3734.873486  -8890.306173    348.085047
PG19 -19965.908483  16624.371110   4900.530070      9.303098
PG20   9260.144426  24950.623759  -2168.071109    521.479197
PG21 -16439.534023 -15297.246764 -13851.643927    122.967508
PG22  -9911.455491 -24308.066327   4890.009528   -596.388747
PG23  15450.920198   1391.475330 -21584.113980    100.113647
PG24  18085.202774  15376.156219 -12555.280936    116.909178
PG25  15167.476784   9663.485215  19368.054474    150.228686
PG26   5436.870239 -22205.278233  13229.356794     94.431681
PG27   6738.235233 -19664.463812 -16492.711479   -142.016418
PG28 -10601.872185  17042.379448 -16943.473824    559.796183
PG29  20452.312979   -358.439518  16918.919308   -358.984990
PG30 -20798.222861   4060.538184 -16091.355347   -435.112423
PG31  10958.678765 -11619.447286  21202.071814   -121.310345
PG32  21130.753013 -15867.356695  -1360.921354     19.494784
PJ01 -32148.025324  25196.364780  15340.447839   -390.353755
PJ02 -19413.444661  23555.996149 -24515.627231     -0.129433
PJ03 -30160.343985  27304.666662  16355.040048     -7.236169
PR01  -8069.329021  -8878.299758  22519.241700     80.440947
PR02 -14389.974803  12206.284468  17240.477261    481.238756
PR03 -10963.381766  23010.360512   1584.717472     37.164237
PR04  -1558.604792  20678.395559 -14824.809115     89.918034
PR05   8702.387622   6901.296269 -22948.071722     73.010859
PR07  10628.588541 -23150.096420   -766.334704    -42.388772
PR08   1343.786919 -20646.591936  14966.557126    -59.363399
PR09  13462.544209    139.461714  21667.921244     -3.623435
PR11 -11314.707954 -21336.227515   8245.033227     -9.412426
PR12 -17480.051980 -15688.132904  -9903.266602    234.657866
PR13 -13652.010318  -1007.340880 -21538.816564    -55.802988
PR14  -1347.699443  14892.822400 -20647.509989     65.009638
PR15  11293.670129  21532.366037  -7686.829280    103.435951
PR16  17986.428019  14598.226705  10800.683688    -15.969292
PR17 -13905.333389  10065.514128  18854.266377    430.015240
PR18   4063.606163  10022.382676  23105.498132     78.980260
PR19  19313.489247   5566.448333  15699.869588   -146.513816
PR20  25043.431844  -3305.886860  -3372.839580    -50.341445
PR21  12831.159246 -10152.818926 -19584.496914   -214.228546
PR22  -5317.725280  -9801.540164 -22971.776898   -116.153623
PR24 -24838.715688   4109.057386   4076.058105     45.335892
EOF
